[{"OBJECT_NAME":"ONEWEB-0580","OBJECT_ID":"2022-166G","EPOCH":"2025-09-07T05:02:53.048544","MEAN_MOTION":13.21825704,"ECCENTRICITY":0.00023111,"INCLINATION":87.9221,"RA_OF_ASC_NODE":300.4566,"ARG_OF_PERICENTER":91.3867,"MEAN_ANOMALY":268.7531,"EPHEMERIS_TYPE":0,"CLASSIFICATION_TYPE":"U","NORAD_CAT_ID":54648,"ELEMENT_SET_NO":999,"REV_AT_EPOCH":13416,"BSTAR":-0.00072841377,"MEAN_MOTION_DOT":-2.88e-6,"MEAN_MOTION_DDOT":0},{"OBJECT_NAME":"ONEWEB-0582","OBJECT_ID":"2022-166H","EPOCH":"2025-09-07T02:26:10.044960","MEAN_MOTION":13.21824745,"ECCENTRICITY":0.00024171,"INCLINATION":87.9211,"RA_OF_ASC_NODE":300.4729,"ARG_OF_PERICENTER":88.9813,"MEAN_ANOMALY":271.1598,"EPHEMERIS_TYPE":0,"CLASSIFICATION_TYPE":"U","NORAD_CAT_ID":54649,"ELEMENT_SET_NO":999,"REV_AT_EPOCH":13412,"BSTAR":-0.00067160951,"MEAN_MOTION_DOT":-2.64e-6,"MEAN_MOTION_DDOT":0},{"OBJECT_NAME":"ONEWEB-0583","OBJECT_ID":"2022-166J","EPOCH":"2025-09-07T04:31:06.056256","MEAN_MOTION":13.21828196,"ECCENTRICITY":0.00019765,"INCLINATION":87.9221,"RA_OF_ASC_NODE":300.4799,"ARG_OF_PERICENTER":91.3863,"MEAN_ANOMALY":268.7498,"EPHEMERIS_TYPE":0,"CLASSIFICATION_TYPE":"U","NORAD_CAT_ID":54650,"ELEMENT_SET_NO":999,"REV_AT_EPOCH":13414,"BSTAR":8.268291e-6,"MEAN_MOTION_DOT":1.6e-7,"MEAN_MOTION_DDOT":0},{"OBJECT_NAME":"ONEWEB-0584","OBJECT_ID":"2022-166K","EPOCH":"2025-09-07T05:00:35.921376","MEAN_MOTION":13.21824072,"ECCENTRICITY":0.00023193,"INCLINATION":87.9221,"RA_OF_ASC_NODE":300.4605,"ARG_OF_PERICENTER":92.7474,"MEAN_ANOMALY":267.3925,"EPHEMERIS_TYPE":0,"CLASSIFICATION_TYPE":"U","NORAD_CAT_ID":54651,"ELEMENT_SET_NO":999,"REV_AT_EPOCH":13413,"BSTAR":-0.00011084057,"MEAN_MOTION_DOT":-3.3e-7,"MEAN_MOTION_DDOT":0},{"OBJECT_NAME":"ONEWEB-0585","OBJECT_ID":"2022-166L","EPOCH":"2025-09-06T20:31:56.807040","MEAN_MOTION":13.21827629,"ECCENTRICITY":0.00018501,"INCLINATION":87.9221,"RA_OF_ASC_NODE":300.5168,"ARG_OF_PERICENTER":98.8638,"MEAN_ANOMALY":261.2705,"EPHEMERIS_TYPE":0,"CLASSIFICATION_TYPE":"U","NORAD_CAT_ID":54652,"ELEMENT_SET_NO":999,"REV_AT_EPOCH":13409,"BSTAR":0.00025116901,"MEAN_MOTION_DOT":1.17e-6,"MEAN_MOTION_DDOT":0},{"OBJECT_NAME":"ONEWEB-0586","OBJECT_ID":"2022-166M","EPOCH":"2025-09-07T02:17:06.354816","MEAN_MOTION":13.2182599,"ECCENTRICITY":0.0002077,"INCLINATION":87.9223,"RA_OF_ASC_NODE":300.4936,"ARG_OF_PERICENTER":91.0806,"MEAN_ANOMALY":269.0566,"EPHEMERIS_TYPE":0,"CLASSIFICATION_TYPE":"U","NORAD_CAT_ID":54653,"ELEMENT_SET_NO":999,"REV_AT_EPOCH":13412,"BSTAR":-0.00045356881,"MEAN_MOTION_DOT":-1.74e-6,"MEAN_MOTION_DDOT":0},{"OBJECT_NAME":"ONEWEB-0587","OBJECT_ID":"2022-166N","EPOCH":"2025-09-07T04:19:45.568128","MEAN_MOTION":13.21824607,"ECCENTRICITY":0.00016843,"INCLINATION":87.9224,"RA_OF_ASC_NODE":300.4243,"ARG_OF_PERICENTER":105.3204,"MEAN_ANOMALY":254.8116,"EPHEMERIS_TYPE":0,"CLASSIFICATION_TYPE":"U","NORAD_CAT_ID":54654,"ELEMENT_SET_NO":999,"REV_AT_EPOCH":13429,"BSTAR":-4.4507364e-5,"MEAN_MOTION_DOT":-5.0e-8,"MEAN_MOTION_DDOT":0},{"OBJECT_NAME":"ONEWEB-0589","OBJECT_ID":"2022-166P","EPOCH":"2025-09-07T02:12:33.405984","MEAN_MOTION":13.21825397,"ECCENTRICITY":0.00027853,"INCLINATION":87.9218,"RA_OF_ASC_NODE":300.4856,"ARG_OF_PERICENTER":89.5622,"MEAN_ANOMALY":270.5831,"EPHEMERIS_TYPE":0,"CLASSIFICATION_TYPE":"U","NORAD_CAT_ID":54655,"ELEMENT_SET_NO":999,"REV_AT_EPOCH":13414,"BSTAR":-0.00066428412,"MEAN_MOTION_DOT":-2.61e-6,"MEAN_MOTION_DDOT":0},{"OBJECT_NAME":"ONEWEB-0590","OBJECT_ID":"2022-166Q","EPOCH":"2025-09-07T04:35:27.659040","MEAN_MOTION":13.21825651,"ECCENTRICITY":0.00022123,"INCLINATION":87.9218,"RA_OF_ASC_NODE":300.4425,"ARG_OF_PERICENTER":106.2691,"MEAN_ANOMALY":253.8686,"EPHEMERIS_TYPE":0,"CLASSIFICATION_TYPE":"U","NORAD_CAT_ID":54656,"ELEMENT_SET_NO":999,"REV_AT_EPOCH":13414,"BSTAR":-8.9627764e-5,"MEAN_MOTION_DOT":-2.4e-7,"MEAN_MOTION_DDOT":0},{"OBJECT_NAME":"ONEWEB-0591","OBJECT_ID":"2022-166R","EPOCH":"2025-09-07T04:53:46.803552","MEAN_MOTION":13.21825767,"ECCENTRICITY":0.00020896,"INCLINATION":87.9219,"RA_OF_ASC_NODE":300.464,"ARG_OF_PERICENTER":94.0808,"MEAN_ANOMALY":266.0565,"EPHEMERIS_TYPE":0,"CLASSIFICATION_TYPE":"U","NORAD_CAT_ID":54657,"ELEMENT_SET_NO":999,"REV_AT_EPOCH":13417,"BSTAR":-0.0010356841,"MEAN_MOTION_DOT":-4.15e-6,"MEAN_MOTION_DDOT":0},{"OBJECT_NAME":"ONEWEB-0592","OBJECT_ID":"2022-166S","EPOCH":"2025-09-07T04:58:19.734240","MEAN_MOTION":13.21825611,"ECCENTRICITY":0.00020643,"INCLINATION":87.9226,"RA_OF_ASC_NODE":300.4174,"ARG_OF_PERICENTER":96.3578,"MEAN_ANOMALY":263.7791,"EPHEMERIS_TYPE":0,"CLASSIFICATION_TYPE":"U","NORAD_CAT_ID":54658,"ELEMENT_SET_NO":999,"REV_AT_EPOCH":13405,"BSTAR":-0.00079009532,"MEAN_MOTION_DOT":-3.13e-6,"MEAN_MOTION_DDOT":0},{"OBJECT_NAME":"ONEWEB-0593","OBJECT_ID":"2022-166T","EPOCH":"2025-09-07T01:54:22.294080","MEAN_MOTION":13.21825386,"ECCENTRICITY":0.00020975,"INCLINATION":87.9218,"RA_OF_ASC_NODE":300.4787,"ARG_OF_PERICENTER":92.7786,"MEAN_ANOMALY":267.3588,"EPHEMERIS_TYPE":0,"CLASSIFICATION_TYPE":"U","NORAD_CAT_ID":54659,"ELEMENT_SET_NO":999,"REV_AT_EPOCH":13414,"BSTAR":-0.00075005459,"MEAN_MOTION_DOT":-2.97e-6,"MEAN_MOTION_DDOT":0},{"OBJECT_NAME":"ONEWEB-0594","OBJECT_ID":"2022-166U","EPOCH":"2025-09-07T02:21:38.667744","MEAN_MOTION":13.21825086,"ECCENTRICITY":0.0001879,"INCLINATION":87.9222,"RA_OF_ASC_NODE":300.4913,"ARG_OF_PERICENTER":94.0783,"MEAN_ANOMALY":266.0565,"EPHEMERIS_TYPE":0,"CLASSIFICATION_TYPE":"U","NORAD_CAT_ID":54660,"ELEMENT_SET_NO":999,"REV_AT_EPOCH":13416,"BSTAR":-0.000628847,"MEAN_MOTION_DOT":-2.47e-6,"MEAN_MOTION_DDOT":0},{"OBJECT_NAME":"ONEWEB-0595","OBJECT_ID":"2022-166V","EPOCH":"2025-09-07T03:38:49.191072","MEAN_MOTION":13.21825538,"ECCENTRICITY":0.00019143,"INCLINATION":87.9219,"RA_OF_ASC_NODE":300.456,"ARG_OF_PERICENTER":100.755,"MEAN_ANOMALY":259.38,"EPHEMERIS_TYPE":0,"CLASSIFICATION_TYPE":"U","NORAD_CAT_ID":54661,"ELEMENT_SET_NO":999,"REV_AT_EPOCH":13414,"BSTAR":-0.00091540556,"MEAN_MOTION_DOT":-3.65e-6,"MEAN_MOTION_DDOT":0},{"OBJECT_NAME":"ONEWEB-0596","OBJECT_ID":"2022-166W","EPOCH":"2025-09-07T04:49:13.948896","MEAN_MOTION":13.21825293,"ECCENTRICITY":0.00020015,"INCLINATION":87.9223,"RA_OF_ASC_NODE":300.4614,"ARG_OF_PERICENTER":97.062,"MEAN_ANOMALY":263.0742,"EPHEMERIS_TYPE":0,"CLASSIFICATION_TYPE":"U","NORAD_CAT_ID":54662,"ELEMENT_SET_NO":999,"REV_AT_EPOCH":13415,"BSTAR":-0.0011722824,"MEAN_MOTION_DOT":-4.71e-6,"MEAN_MOTION_DDOT":0},{"OBJECT_NAME":"ONEWEB-0597","OBJECT_ID":"2022-166X","EPOCH":"2025-09-07T04:22:00.404832","MEAN_MOTION":13.21826354,"ECCENTRICITY":0.00021127,"INCLINATION":87.9223,"RA_OF_ASC_NODE":300.4688,"ARG_OF_PERICENTER":93.5551,"MEAN_ANOMALY":266.5825,"EPHEMERIS_TYPE":0,"CLASSIFICATION_TYPE":"U","NORAD_CAT_ID":54663,"ELEMENT_SET_NO":999,"REV_AT_EPOCH":13415,"BSTAR":-0.00061167948,"MEAN_MOTION_DOT":-2.4e-6,"MEAN_MOTION_DDOT":0}]
