ONEWEB-0580             
1 54648U 22166G   25250.21033621 -.00000288  00000+0 -72841-3 0  9990
2 54648  87.9221 300.4566 0002311  91.3867 268.7531 13.21825704134163
ONEWEB-0582             
1 54649U 22166H   25250.10150515 -.00000264  00000+0 -67161-3 0  9994
2 54649  87.9211 300.4729 0002417  88.9813 271.1598 13.21824745134125
ONEWEB-0583             
1 54650U 22166J   25250.18826454  .00000016  00000+0  82683-5 0  9997
2 54650  87.9221 300.4799 0001976  91.3863 268.7498 13.21828196134144
ONEWEB-0584             
1 54651U 22166K   25250.20874909 -.00000033  00000+0 -11084-3 0  9995
2 54651  87.9221 300.4605 0002319  92.7474 267.3925 13.21824072134134
ONEWEB-0585             
1 54652U 22166L   25249.85551860  .00000117  00000+0  25117-3 0  9996
2 54652  87.9221 300.5168 0001850  98.8638 261.2705 13.21827629134093
ONEWEB-0586             
1 54653U 22166M   25250.09521244 -.00000174  00000+0 -45357-3 0  9991
2 54653  87.9223 300.4936 0002077  91.0806 269.0566 13.21825990134126
ONEWEB-0587             
1 54654U 22166N   25250.18038852 -.00000005  00000+0 -44507-4 0  9990
2 54654  87.9224 300.4243 0001684 105.3204 254.8116 13.21824607134298
ONEWEB-0589             
1 54655U 22166P   25250.09205331 -.00000261  00000+0 -66428-3 0  9998
2 54655  87.9218 300.4856 0002785  89.5622 270.5831 13.21825397134142
ONEWEB-0590             
1 54656U 22166Q   25250.19129235 -.00000024  00000+0 -89628-4 0  9993
2 54656  87.9218 300.4425 0002212 106.2691 253.8686 13.21825651134148
ONEWEB-0591             
1 54657U 22166R   25250.20401393 -.00000415  00000+0 -10357-2 0  9999
2 54657  87.9219 300.4640 0002089  94.0808 266.0565 13.21825767134178
ONEWEB-0592             
1 54658U 22166S   25250.20717285 -.00000313  00000+0 -79010-3 0  9999
2 54658  87.9226 300.4174 0002064  96.3578 263.7791 13.21825611134051
ONEWEB-0593             
1 54659U 22166T   25250.07942470 -.00000297  00000+0 -75005-3 0  9992
2 54659  87.9218 300.4787 0002097  92.7786 267.3588 13.21825386134143
ONEWEB-0594             
1 54660U 22166U   25250.09836421 -.00000247  00000+0 -62885-3 0  9991
2 54660  87.9222 300.4913 0001879  94.0783 266.0565 13.21825086134160
ONEWEB-0595             
1 54661U 22166V   25250.15195823 -.00000365  00000+0 -91541-3 0  9995
2 54661  87.9219 300.4560 0001914 100.7550 259.3800 13.21825538134149
ONEWEB-0596             
1 54662U 22166W   25250.20085589 -.00000471  00000+0 -11723-2 0  9990
2 54662  87.9223 300.4614 0002001  97.0620 263.0742 13.21825293134155
ONEWEB-0597             
1 54663U 22166X   25250.18194913 -.00000240  00000+0 -61168-3 0  9993
2 54663  87.9223 300.4688 0002112  93.5551 266.5825 13.21826354134153
